OBJECT C                
1 57582U 23117C   25192.19456297  .00004237  00000+0  16560-3 0  9999
2 57582  97.4443 267.0153 0008989  22.5718 337.5914 15.26383338106330
